{
  "type": "FeatureCollection",
  "features": [
    {
      "type": "Feature",
      "properties": {
        "norad_id": 35670,
        "name": "COSMOS 2251 DEB",
        "group": "cosmos-2251-debris",
        "lat": 72.55906426708805,
        "lon": 163.1441623325676,
        "alt_km": 576.6626143782196,
        "timestamp": "2025-12-19T20:43:00.482394+00:00",
        "meta_object_name": "COSMOS 2251 DEB",
        "meta_object_id": "1993-036APM",
        "meta_epoch": "2025-12-18T10:32:25.065600",
        "meta_mean_motion": 14.94054874,
        "meta_eccentricity": 0.00380936,
        "meta_inclination": 73.8949,
        "meta_ra_of_asc_node": 52.9128,
        "meta_arg_of_pericenter": 12.3684,
        "meta_mean_anomaly": 347.8424,
        "meta_ephemeris_type": 0,
        "meta_classification_type": "U",
        "meta_norad_cat_id": 35670,
        "meta_element_set_no": 999,
        "meta_rev_at_epoch": 87812,
        "meta_bstar": 0.00098052363,
        "meta_mean_motion_dot": 0.00010595,
        "meta_mean_motion_ddot": 0,
        "tle_line1": "1 35670U 93036APM 25352.43917900  .00010595  00000+0  98052-3 0  9998",
        "tle_line2": "2 35670  73.8949  52.9128 0038093  12.3684 347.8424 14.94054874878121"
      },
      "geometry": {
        "type": "Point",
        "coordinates": [
          163.1441623325676,
          72.55906426708805
        ]
      }
    },
    {
      "type": "Feature",
      "properties": {
        "norad_id": 35671,
        "name": "COSMOS 2251 DEB",
        "group": "cosmos-2251-debris",
        "lat": 73.24805114972574,
        "lon": 138.16201273375512,
        "alt_km": 750.0152142424704,
        "timestamp": "2025-12-19T20:43:00.482405+00:00",
        "meta_object_name": "COSMOS 2251 DEB",
        "meta_object_id": "1993-036APN",
        "meta_epoch": "2025-12-17T12:02:51.877248",
        "meta_mean_motion": 14.48356669,
        "meta_eccentricity": 0.00414327,
        "meta_inclination": 74.0178,
        "meta_ra_of_asc_node": 70.3857,
        "meta_arg_of_pericenter": 243.6268,
        "meta_mean_anomaly": 134.9759,
        "meta_ephemeris_type": 0,
        "meta_classification_type": "U",
        "meta_norad_cat_id": 35671,
        "meta_element_set_no": 999,
        "meta_rev_at_epoch": 86832,
        "meta_bstar": 0.00018080216,
        "meta_mean_motion_dot": 6.55e-06,
        "meta_mean_motion_ddot": 0,
        "tle_line1": "1 35671U 93036APN 25351.50198932  .00000655  00000+0  18080-3 0  9991",
        "tle_line2": "2 35671  74.0178  70.3857 0041432 243.6268 134.9759 14.48356669868323"
      },
      "geometry": {
        "type": "Point",
        "coordinates": [
          138.16201273375512,
          73.24805114972574
        ]
      }
    },
    {
      "type": "Feature",
      "properties": {
        "norad_id": 35674,
        "name": "COSMOS 2251 DEB",
        "group": "cosmos-2251-debris",
        "lat": 62.04340697963458,
        "lon": 90.47731180581683,
        "alt_km": 745.877815754001,
        "timestamp": "2025-12-19T20:43:00.482415+00:00",
        "meta_object_name": "COSMOS 2251 DEB",
        "meta_object_id": "1993-036APR",
        "meta_epoch": "2025-12-17T07:06:57.455712",
        "meta_mean_motion": 14.54280117,
        "meta_eccentricity": 0.00961628,
        "meta_inclination": 74.0599,
        "meta_ra_of_asc_node": 307.9038,
        "meta_arg_of_pericenter": 351.6495,
        "meta_mean_anomaly": 8.3061,
        "meta_ephemeris_type": 0,
        "meta_classification_type": "U",
        "meta_norad_cat_id": 35674,
        "meta_element_set_no": 999,
        "meta_rev_at_epoch": 86177,
        "meta_bstar": 0.001519305,
        "meta_mean_motion_dot": 6.829e-05,
        "meta_mean_motion_ddot": 0,
        "tle_line1": "1 35674U 93036APR 25351.29649833  .00006829  00000+0  15193-2 0  9991",
        "tle_line2": "2 35674  74.0599 307.9038 0096162 351.6495   8.3061 14.54280117861778"
      },
      "geometry": {
        "type": "Point",
        "coordinates": [
          90.47731180581683,
          62.04340697963458
        ]
      }
    },
    {
      "type": "Feature",
      "properties": {
        "norad_id": 35701,
        "name": "COSMOS 2251 DEB",
        "group": "cosmos-2251-debris",
        "lat": -24.00791152195922,
        "lon": -76.93426459749881,
        "alt_km": 1168.6270017692768,
        "timestamp": "2025-12-19T20:43:00.482426+00:00",
        "meta_object_name": "COSMOS 2251 DEB",
        "meta_object_id": "1993-036APW",
        "meta_epoch": "2025-12-06T05:57:57.623904",
        "meta_mean_motion": 13.80843435,
        "meta_eccentricity": 0.02897209,
        "meta_inclination": 74.0028,
        "meta_ra_of_asc_node": 313.2955,
        "meta_arg_of_pericenter": 164.0681,
        "meta_mean_anomaly": 196.98,
        "meta_ephemeris_type": 0,
        "meta_classification_type": "U",
        "meta_norad_cat_id": 35701,
        "meta_element_set_no": 999,
        "meta_rev_at_epoch": 62069,
        "meta_bstar": 0.0021223911,
        "meta_mean_motion_dot": 3.05e-05,
        "meta_mean_motion_ddot": 0,
        "tle_line1": "1 35701U 93036APW 25340.24858361  .00003050  00000+0  21224-2 0  9998",
        "tle_line2": "2 35701  74.0028 313.2955 0289720 164.0681 196.9800 13.80843435620696"
      },
      "geometry": {
        "type": "Point",
        "coordinates": [
          -76.93426459749881,
          -24.00791152195922
        ]
      }
    },
    {
      "type": "Feature",
      "properties": {
        "norad_id": 35703,
        "name": "COSMOS 2251 DEB",
        "group": "cosmos-2251-debris",
        "lat": -71.75349681798437,
        "lon": -31.710448598081967,
        "alt_km": 648.4155093599275,
        "timestamp": "2025-12-19T20:43:00.482436+00:00",
        "meta_object_name": "COSMOS 2251 DEB",
        "meta_object_id": "1993-036APY",
        "meta_epoch": "2025-12-18T09:38:31.022016",
        "meta_mean_motion": 14.90418492,
        "meta_eccentricity": 0.00644432,
        "meta_inclination": 74.0423,
        "meta_ra_of_asc_node": 31.4322,
        "meta_arg_of_pericenter": 99.4587,
        "meta_mean_anomaly": 261.3887,
        "meta_ephemeris_type": 0,
        "meta_classification_type": "U",
        "meta_norad_cat_id": 35703,
        "meta_element_set_no": 999,
        "meta_rev_at_epoch": 66700,
        "meta_bstar": 0.00052633158,
        "meta_mean_motion_dot": 5.3e-05,
        "meta_mean_motion_ddot": 0,
        "tle_line1": "1 35703U 93036APY 25352.40174794  .00005300  00000+0  52633-3 0  9991",
        "tle_line2": "2 35703  74.0423  31.4322 0064443  99.4587 261.3887 14.90418492667004"
      },
      "geometry": {
        "type": "Point",
        "coordinates": [
          -31.710448598081967,
          -71.75349681798437
        ]
      }
    },
    {
      "type": "Feature",
      "properties": {
        "norad_id": 35705,
        "name": "COSMOS 2251 DEB",
        "group": "cosmos-2251-debris",
        "lat": -38.9208079105732,
        "lon": 109.0023123118816,
        "alt_km": 666.8063211829203,
        "timestamp": "2025-12-19T20:43:00.482447+00:00",
        "meta_object_name": "COSMOS 2251 DEB",
        "meta_object_id": "1993-036AQA",
        "meta_epoch": "2025-12-18T02:30:16.850016",
        "meta_mean_motion": 14.7240967,
        "meta_eccentricity": 0.0033127,
        "meta_inclination": 74.2733,
        "meta_ra_of_asc_node": 125.5265,
        "meta_arg_of_pericenter": 72.0768,
        "meta_mean_anomaly": 288.4013,
        "meta_ephemeris_type": 0,
        "meta_classification_type": "U",
        "meta_norad_cat_id": 35705,
        "meta_element_set_no": 999,
        "meta_rev_at_epoch": 86005,
        "meta_bstar": 0.0020233771,
        "meta_mean_motion_dot": 0.00012927,
        "meta_mean_motion_ddot": 0,
        "tle_line1": "1 35705U 93036AQA 25352.10436169  .00012927  00000+0  20234-2 0  9991",
        "tle_line2": "2 35705  74.2733 125.5265 0033127  72.0768 288.4013 14.72409670860055"
      },
      "geometry": {
        "type": "Point",
        "coordinates": [
          109.0023123118816,
          -38.9208079105732
        ]
      }
    },
    {
      "type": "Feature",
      "properties": {
        "norad_id": 35706,
        "name": "COSMOS 2251 DEB",
        "group": "cosmos-2251-debris",
        "lat": 8.590831947473525,
        "lon": 53.543488747935626,
        "alt_km": 1008.9395643241878,
        "timestamp": "2025-12-19T20:43:00.482457+00:00",
        "meta_object_name": "COSMOS 2251 DEB",
        "meta_object_id": "1993-036AQB",
        "meta_epoch": "2025-12-18T11:16:36.033600",
        "meta_mean_motion": 13.65935388,
        "meta_eccentricity": 0.03401259,
        "meta_inclination": 73.8894,
        "meta_ra_of_asc_node": 53.3421,
        "meta_arg_of_pericenter": 102.0554,
        "meta_mean_anomaly": 261.8887,
        "meta_ephemeris_type": 0,
        "meta_classification_type": "U",
        "meta_norad_cat_id": 35706,
        "meta_element_set_no": 999,
        "meta_rev_at_epoch": 62140,
        "meta_bstar": 0.00059519362,
        "meta_mean_motion_dot": 7.07e-06,
        "meta_mean_motion_ddot": 0,
        "tle_line1": "1 35706U 93036AQB 25352.46986150  .00000707  00000+0  59519-3 0  9993",
        "tle_line2": "2 35706  73.8894  53.3421 0340125 102.0554 261.8887 13.65935388621406"
      },
      "geometry": {
        "type": "Point",
        "coordinates": [
          53.543488747935626,
          8.590831947473525
        ]
      }
    }
  ]
}